CCSDS_OMM_VERS = 2.0
CREATION_DATE  = 
ORIGINATOR     = 

OBJECT_NAME    = STARLINK-35629
OBJECT_ID      = 2025-237P
CENTER_NAME    = EARTH
REF_FRAME      = TEME
TIME_SYSTEM    = UTC
MEAN_ELEMENT_THEORY = SGP/SGP4

EPOCH          = 2025-11-07T04:00:03.000096
MEAN_MOTION    = 15.74425106
ECCENTRICITY   = .0000824
INCLINATION    = 53.1596
RA_OF_ASC_NODE = 256.3426
ARG_OF_PERICENTER = 95.8180
MEAN_ANOMALY   = 299.7989

EPHEMERIS_TYPE = 0
CLASSIFICATION_TYPE = U
NORAD_CAT_ID   = 66127
ELEMENT_SET_NO = 999
REV_AT_EPOCH   = 376
BSTAR          = -.14538E-1
MEAN_MOTION_DOT = -.1874568E-1
MEAN_MOTION_DDOT = 0

CCSDS_OMM_VERS = 2.0
CREATION_DATE  = 
ORIGINATOR     = 

OBJECT_NAME    = STARLINK-35612
OBJECT_ID      = 2025-237Q
CENTER_NAME    = EARTH
REF_FRAME      = TEME
TIME_SYSTEM    = UTC
MEAN_ELEMENT_THEORY = SGP/SGP4

EPOCH          = 2025-11-07T04:00:03.000096
MEAN_MOTION    = 15.74474658
ECCENTRICITY   = .000084
INCLINATION    = 53.1598
RA_OF_ASC_NODE = 256.3387
ARG_OF_PERICENTER = 74.4430
MEAN_ANOMALY   = 323.0498

EPHEMERIS_TYPE = 0
CLASSIFICATION_TYPE = U
NORAD_CAT_ID   = 66128
ELEMENT_SET_NO = 999
REV_AT_EPOCH   = 376
BSTAR          = -.14876E-1
MEAN_MOTION_DOT = -.1915888E-1
MEAN_MOTION_DDOT = 0

CCSDS_OMM_VERS = 2.0
CREATION_DATE  = 
ORIGINATOR     = 

OBJECT_NAME    = STARLINK-35632
OBJECT_ID      = 2025-237R
CENTER_NAME    = EARTH
REF_FRAME      = TEME
TIME_SYSTEM    = UTC
MEAN_ELEMENT_THEORY = SGP/SGP4

EPOCH          = 2025-11-07T04:00:03.000096
MEAN_MOTION    = 15.74467521
ECCENTRICITY   = .0000906
INCLINATION    = 53.1596
RA_OF_ASC_NODE = 256.3343
ARG_OF_PERICENTER = 87.0623
MEAN_ANOMALY   = 312.3502

EPHEMERIS_TYPE = 0
CLASSIFICATION_TYPE = U
NORAD_CAT_ID   = 66129
ELEMENT_SET_NO = 999
REV_AT_EPOCH   = 376
BSTAR          = -.14792E-1
MEAN_MOTION_DOT = -.1906047E-1
MEAN_MOTION_DDOT = 0

CCSDS_OMM_VERS = 2.0
CREATION_DATE  = 
ORIGINATOR     = 

OBJECT_NAME    = STARLINK-35637
OBJECT_ID      = 2025-237S
CENTER_NAME    = EARTH
REF_FRAME      = TEME
TIME_SYSTEM    = UTC
MEAN_ELEMENT_THEORY = SGP/SGP4

EPOCH          = 2025-11-07T04:00:03.000096
MEAN_MOTION    = 15.74465059
ECCENTRICITY   = .000134
INCLINATION    = 53.1597
RA_OF_ASC_NODE = 256.3298
ARG_OF_PERICENTER = 30.8827
MEAN_ANOMALY   = 10.4445

EPHEMERIS_TYPE = 0
CLASSIFICATION_TYPE = U
NORAD_CAT_ID   = 66130
ELEMENT_SET_NO = 999
REV_AT_EPOCH   = 376
BSTAR          = -.14775E-1
MEAN_MOTION_DOT = -.1904366E-1
MEAN_MOTION_DDOT = 0

CCSDS_OMM_VERS = 2.0
CREATION_DATE  = 
ORIGINATOR     = 

OBJECT_NAME    = STARLINK-35630
OBJECT_ID      = 2025-237T
CENTER_NAME    = EARTH
REF_FRAME      = TEME
TIME_SYSTEM    = UTC
MEAN_ELEMENT_THEORY = SGP/SGP4

EPOCH          = 2025-11-07T04:00:03.000096
MEAN_MOTION    = 15.74456286
ECCENTRICITY   = .0001225
INCLINATION    = 53.1597
RA_OF_ASC_NODE = 256.3258
ARG_OF_PERICENTER = 32.7309
MEAN_ANOMALY   = 10.5098

EPHEMERIS_TYPE = 0
CLASSIFICATION_TYPE = U
NORAD_CAT_ID   = 66131
ELEMENT_SET_NO = 999
REV_AT_EPOCH   = 376
BSTAR          = -.14642E-1
MEAN_MOTION_DOT = -.1888718E-1
MEAN_MOTION_DDOT = 0

CCSDS_OMM_VERS = 2.0
CREATION_DATE  = 
ORIGINATOR     = 

OBJECT_NAME    = STARLINK-34412
OBJECT_ID      = 2025-237U
CENTER_NAME    = EARTH
REF_FRAME      = TEME
TIME_SYSTEM    = UTC
MEAN_ELEMENT_THEORY = SGP/SGP4

EPOCH          = 2025-11-07T04:00:03.000096
MEAN_MOTION    = 15.74433084
ECCENTRICITY   = .0001654
INCLINATION    = 53.1597
RA_OF_ASC_NODE = 256.3223
ARG_OF_PERICENTER = 59.5950
MEAN_ANOMALY   = 345.6004

EPHEMERIS_TYPE = 0
CLASSIFICATION_TYPE = U
NORAD_CAT_ID   = 66132
ELEMENT_SET_NO = 999
REV_AT_EPOCH   = 367
BSTAR          = -.14642E-1
MEAN_MOTION_DOT = -.1887539E-1
MEAN_MOTION_DDOT = 0

CCSDS_OMM_VERS = 2.0
CREATION_DATE  = 
ORIGINATOR     = 

OBJECT_NAME    = STARLINK-35520
OBJECT_ID      = 2025-237V
CENTER_NAME    = EARTH
REF_FRAME      = TEME
TIME_SYSTEM    = UTC
MEAN_ELEMENT_THEORY = SGP/SGP4

EPOCH          = 2025-11-07T04:00:03.000096
MEAN_MOTION    = 15.74465737
ECCENTRICITY   = .0001003
INCLINATION    = 53.1598
RA_OF_ASC_NODE = 256.3183
ARG_OF_PERICENTER = 79.7487
MEAN_ANOMALY   = 327.3362

EPHEMERIS_TYPE = 0
CLASSIFICATION_TYPE = U
NORAD_CAT_ID   = 66133
ELEMENT_SET_NO = 999
REV_AT_EPOCH   = 376
BSTAR          = -.14827E-1
MEAN_MOTION_DOT = -.1909872E-1
MEAN_MOTION_DDOT = 0

CCSDS_OMM_VERS = 2.0
CREATION_DATE  = 
ORIGINATOR     = 

OBJECT_NAME    = STARLINK-35525
OBJECT_ID      = 2025-237W
CENTER_NAME    = EARTH
REF_FRAME      = TEME
TIME_SYSTEM    = UTC
MEAN_ELEMENT_THEORY = SGP/SGP4

EPOCH          = 2025-11-07T04:00:03.000096
MEAN_MOTION    = 15.74461907
ECCENTRICITY   = .0001273
INCLINATION    = 53.1598
RA_OF_ASC_NODE = 256.3142
ARG_OF_PERICENTER = 135.6044
MEAN_ANOMALY   = 273.3919

EPHEMERIS_TYPE = 0
CLASSIFICATION_TYPE = U
NORAD_CAT_ID   = 66134
ELEMENT_SET_NO = 999
REV_AT_EPOCH   = 376
BSTAR          = -.1478E-1
MEAN_MOTION_DOT = -.1904574E-1
MEAN_MOTION_DDOT = 0

CCSDS_OMM_VERS = 2.0
CREATION_DATE  = 
ORIGINATOR     = 

OBJECT_NAME    = STARLINK-34852
OBJECT_ID      = 2025-237X
CENTER_NAME    = EARTH
REF_FRAME      = TEME
TIME_SYSTEM    = UTC
MEAN_ELEMENT_THEORY = SGP/SGP4

EPOCH          = 2025-11-07T04:00:03.000096
MEAN_MOTION    = 15.74468753
ECCENTRICITY   = .0001323
INCLINATION    = 53.1597
RA_OF_ASC_NODE = 256.3104
ARG_OF_PERICENTER = 30.9721
MEAN_ANOMALY   = 19.9369

EPHEMERIS_TYPE = 0
CLASSIFICATION_TYPE = U
NORAD_CAT_ID   = 66135
ELEMENT_SET_NO = 999
REV_AT_EPOCH   = 372
BSTAR          = -.14816E-1
MEAN_MOTION_DOT = -.190918E-1
MEAN_MOTION_DDOT = 0

CCSDS_OMM_VERS = 2.0
CREATION_DATE  = 
ORIGINATOR     = 

OBJECT_NAME    = STARLINK-35592
OBJECT_ID      = 2025-237Y
CENTER_NAME    = EARTH
REF_FRAME      = TEME
TIME_SYSTEM    = UTC
MEAN_ELEMENT_THEORY = SGP/SGP4

EPOCH          = 2025-11-07T04:00:03.000096
MEAN_MOTION    = 15.74466683
ECCENTRICITY   = .0000863
INCLINATION    = 53.1599
RA_OF_ASC_NODE = 256.3060
ARG_OF_PERICENTER = 88.4745
MEAN_ANOMALY   = 324.3578

EPHEMERIS_TYPE = 0
CLASSIFICATION_TYPE = U
NORAD_CAT_ID   = 66136
ELEMENT_SET_NO = 999
REV_AT_EPOCH   = 376
BSTAR          = -.14803E-1
MEAN_MOTION_DOT = -.1907199E-1
MEAN_MOTION_DDOT = 0

CCSDS_OMM_VERS = 2.0
CREATION_DATE  = 
ORIGINATOR     = 

OBJECT_NAME    = STARLINK-35576
OBJECT_ID      = 2025-237Z
CENTER_NAME    = EARTH
REF_FRAME      = TEME
TIME_SYSTEM    = UTC
MEAN_ELEMENT_THEORY = SGP/SGP4

EPOCH          = 2025-11-07T04:00:03.000096
MEAN_MOTION    = 15.74463206
ECCENTRICITY   = .0001029
INCLINATION    = 53.1600
RA_OF_ASC_NODE = 256.3016
ARG_OF_PERICENTER = 91.1818
MEAN_ANOMALY   = 323.5709

EPHEMERIS_TYPE = 0
CLASSIFICATION_TYPE = U
NORAD_CAT_ID   = 66137
ELEMENT_SET_NO = 999
REV_AT_EPOCH   = 376
BSTAR          = -.14816E-1
MEAN_MOTION_DOT = -.1908529E-1
MEAN_MOTION_DDOT = 0

CCSDS_OMM_VERS = 2.0
CREATION_DATE  = 
ORIGINATOR     = 

OBJECT_NAME    = STARLINK-35623
OBJECT_ID      = 2025-237AA
CENTER_NAME    = EARTH
REF_FRAME      = TEME
TIME_SYSTEM    = UTC
MEAN_ELEMENT_THEORY = SGP/SGP4

EPOCH          = 2025-11-07T04:00:03.000096
MEAN_MOTION    = 15.74462926
ECCENTRICITY   = .0001481
INCLINATION    = 53.1599
RA_OF_ASC_NODE = 256.2982
ARG_OF_PERICENTER = 41.5552
MEAN_ANOMALY   = 15.1014

EPHEMERIS_TYPE = 0
CLASSIFICATION_TYPE = U
NORAD_CAT_ID   = 66138
ELEMENT_SET_NO = 999
REV_AT_EPOCH   = 376
BSTAR          = -.14716E-1
MEAN_MOTION_DOT = -.1897785E-1
MEAN_MOTION_DDOT = 0

