STARLINK-35629          
1 66127U 25237P   25311.16670139 -.01874568  00000+0 -14538-1 0  9998
2 66127  53.1596 256.3426 0000824  95.8180 299.7989 15.74425106  3760
STARLINK-35612          
1 66128U 25237Q   25311.16670139 -.01915888  00000+0 -14876-1 0  9995
2 66128  53.1598 256.3387 0000840  74.4430 323.0498 15.74474658  3760
STARLINK-35632          
1 66129U 25237R   25311.16670139 -.01906047  00000+0 -14792-1 0  9990
2 66129  53.1596 256.3343 0000906  87.0623 312.3502 15.74467521  3766
STARLINK-35637          
1 66130U 25237S   25311.16670139 -.01904366  00000+0 -14775-1 0  9995
2 66130  53.1597 256.3298 0001340  30.8827  10.4445 15.74465059  3769
STARLINK-35630          
1 66131U 25237T   25311.16670139 -.01888718  00000+0 -14642-1 0  9991
2 66131  53.1597 256.3258 0001225  32.7309  10.5098 15.74456286  3761
STARLINK-34412          
1 66132U 25237U   25311.16670139 -.01887539  00000+0 -14642-1 0  9992
2 66132  53.1597 256.3223 0001654  59.5950 345.6004 15.74433084  3679
STARLINK-35520          
1 66133U 25237V   25311.16670139 -.01909872  00000+0 -14827-1 0  9993
2 66133  53.1598 256.3183 0001003  79.7487 327.3362 15.74465737  3767
STARLINK-35525          
1 66134U 25237W   25311.16670139 -.01904574  00000+0 -14780-1 0  9996
2 66134  53.1598 256.3142 0001273 135.6044 273.3919 15.74461907  3766
STARLINK-34852          
1 66135U 25237X   25311.16670139 -.01909180  00000+0 -14816-1 0  9995
2 66135  53.1597 256.3104 0001323  30.9721  19.9369 15.74468753  3724
STARLINK-35592          
1 66136U 25237Y   25311.16670139 -.01907199  00000+0 -14803-1 0  9990
2 66136  53.1599 256.3060 0000863  88.4745 324.3578 15.74466683  3769
STARLINK-35576          
1 66137U 25237Z   25311.16670139 -.01908529  00000+0 -14816-1 0  9993
2 66137  53.1600 256.3016 0001029  91.1818 323.5709 15.74463206  3766
STARLINK-35623          
1 66138U 25237AA  25311.16670139 -.01897785  00000+0 -14716-1 0  9994
2 66138  53.1599 256.2982 0001481  41.5552  15.1014 15.74462926  3762
